IRIDIUM 112             
1 41925U 17003J   24115.91214119  .00001022  00000+0  35786-3 0  9999
2 41925  86.3981  55.6306 0002476  94.1451 266.0028 14.34223125381009
IRIDIUM 111             
1 41926U 17003K   24115.96924066  .00000361  00000+0  12197-3 0  9990
2 41926  86.3984  55.6600 0002596  85.1920 274.9572 14.34214832381067
IRIDIUM 113             
1 42803U 17039A   24116.01897323  .00000035  00000+0  54357-5 0  9990
2 42803  86.3920 289.4222 0002388  92.6013 267.5457 14.34216362358934
IRIDIUM 123             
1 42804U 17039B   24116.13020060  .00000709  00000+0  24619-3 0  9994
2 42804  86.3948 320.8944 0002331  81.7778 278.3683 14.34216422357714
IRIDIUM 120             
1 42805U 17039C   24116.50100930  .00000047  00000+0  97325-5 0  9992
2 42805  86.3908 289.1043 0002044  87.0361 273.1069 14.34217328358994
IRIDIUM 115             
1 42806U 17039D   24115.88808152  .00000512  00000+0  14620-3 0  9996
2 42806  86.4447 289.3778 0002372  91.8183 268.3290 14.43284494361286
IRIDIUM 118             
1 42807U 17039E   24116.09215097  .00000747  00000+0  25983-3 0  9995
2 42807  86.3953 320.9118 0002368  97.5694 262.5771 14.34213021357714
IRIDIUM 117             
1 42808U 17039F   24116.11117532  .00000732  00000+0  25442-3 0  9998
2 42808  86.3951 320.8681 0002394  82.3429 277.8039 14.34214256357744
